NORAD_CAT_ID,OBJECT_NAME,OBJECT_TYPE,EPOCH,MEAN_MOTION,ECCENTRICITY,INCLINATION,RA_OF_ASC_NODE,ARG_OF_PERICENTER,MEAN_ANOMALY,BSTAR,MEAN_MOTION_DOT,MEAN_MOTION_DDOT,TLE_LINE0,TLE_LINE1,TLE_LINE2,SEMIMAJOR_AXIS,PERIOD,APOGEE,PERIGEE,DECAYED
53180.0,STARLINK-4258,PAYLOAD,2022-09-11 04:00:00,15.73158859,0.0003663999999999,53.2158,131.7745,5.9158,48.4047,0.00052922,0.00074198,0.0,0 STARLINK-4258,1 53180U 22083BA  22254.16667824  .00074198  00000-0  52922-3 0  9999,2 53180  53.2158 131.7745 0003664   5.9158  48.4047 15.73158859  9398,6728.012,91.536,352.343,347.412,0.0
53180.0,STARLINK-4258,PAYLOAD,2022-09-11 14:00:01,15.73192558,0.0003326,53.2159,129.7149,5.647,249.7961,0.00071796,0.00101351,0.0,0 STARLINK-4258,1 53180U 22083BA  22254.58334491  .00101351  00000-0  71796-3 0  9998,2 53180  53.2159 129.7149 0003326   5.6470 249.7961 15.73192558  9466,6727.916,91.534,352.019,347.5440000000001,0.0
53180.0,STARLINK-4258,PAYLOAD,2022-09-11 20:00:01,15.73292366,0.0003438999999999,53.216,128.4791,5.6352,226.5145,-0.00074615,-0.00104503,0.0,0 STARLINK-4258,1 53180U 22083BA  22254.83334491 -.00104503  00000-0 -74615-3 0  9993,2 53180  53.2160 128.4791 0003439   5.6352 226.5145 15.73292366  9501,6727.632,91.528,351.81,347.18300000000005,0.0
53180.0,STARLINK-4258,PAYLOAD,2022-09-11 22:00:00,15.73283908,0.0003542,53.2159,128.0671,5.4069,338.9964,-0.00086322,-0.00120534,0.0,0 STARLINK-4258,1 53180U 22083BA  22254.91667824 -.00120534  00000-0 -86322-3 0  9991,2 53180  53.2159 128.0671 0003542   5.4069 338.9964 15.73283908  1309,6727.656,91.528,351.904,347.13800000000015,0.0
53180.0,STARLINK-4258,PAYLOAD,2022-09-12 12:00:00,15.73174958,0.0003336,53.2155,125.1786,3.7055,46.3845,0.00023472,0.00032419,0.0,0 STARLINK-4258,1 53180U 22083BA  22255.50001157  .00032419  00000-0  23472-3 0  9997,2 53180  53.2155 125.1786 0003336   3.7055  46.3845 15.73174958  9600,6727.967,91.535,352.076,347.587,0.0
53180.0,STARLINK-4258,PAYLOAD,2022-09-12 14:00:01,15.73163317,0.0003318,53.2155,124.7661,4.049,158.2734,0.00047652,0.00066697,0.0,0 STARLINK-4258,1 53180U 22083BA  22255.58334491  .00066697  00000-0  47652-3 0  9996,2 53180  53.2155 124.7661 0003318   4.0490 158.2734 15.73163317  1300,6728.0,91.535,352.097,347.63199999999995,0.0
53180.0,STARLINK-4258,PAYLOAD,2022-09-12 22:00:00,15.73208618,0.0003605,53.2155,123.1186,4.5231,246.7114,0.00033068,0.00046071,0.0,0 STARLINK-4258,1 53180U 22083BA  22255.91667824  .00046071  00000-0  33068-3 0  9992,2 53180  53.2155 123.1186 0003605   4.5231 246.7114 15.73208618  1301,6727.871,91.533,352.161,347.31,0.0
53180.0,STARLINK-4258,PAYLOAD,2022-09-13 14:00:01,15.73216574,0.0003359,53.2154,119.8171,7.0606,62.0802,-0.00041657,-0.00058741,0.0,0 STARLINK-4258,1 53180U 22083BA  22256.58334491 -.00058741  00000-0 -41657-3 0  9999,2 53180  53.2154 119.8171 0003359   7.0606  62.0802 15.73216574  1309,6727.848000000001,91.532,351.973,347.45300000000015,0.0
53180.0,STARLINK-4258,PAYLOAD,2022-09-13 16:00:00,15.73211845,0.0003365,53.2157,119.402,7.6247,173.7511,-0.00046519,-0.0006546,0.0,0 STARLINK-4258,1 53180U 22083BA  22256.66667824 -.00065460  00000-0 -46519-3 0  9995,2 53180  53.2157 119.4020 0003365   7.6247 173.7511 15.73211845  9799,6727.861,91.532,351.99,347.462,0.0
53180.0,STARLINK-4258,PAYLOAD,2022-09-13 22:00:00,15.73135229,0.0003692,53.2159,118.1675,8.6547,149.4028,0.00037678,0.00052456,0.0,0 STARLINK-4258,1 53180U 22083BA  22256.91667824  .00052456  00000-0  37678-3 0  9998,2 53180  53.2159 118.1675 0003692   8.6547 149.4028 15.73135229  1303,6728.08,91.537,352.42900000000014,347.461,0.0
53180.0,STARLINK-4258,PAYLOAD,2022-09-14 04:00:00,15.73193811,0.0003756,53.2159,116.9266,8.4123,126.2889,-2.3499e-05,-3.921e-05,0.0,0 STARLINK-4258,1 53180U 22083BA  22257.16667824 -.00003921  00000-0 -23499-4 0  9998,2 53180  53.2159 116.9266 0003756   8.4123 126.2889 15.73193811  9873,6727.913000000001,91.534,352.305,347.251,0.0
53180.0,STARLINK-4258,PAYLOAD,2022-09-14 14:00:01,15.73210983,0.0003431,53.2155,114.8662,9.6859,326.1299,0.00042777,0.00059885,0.0,0 STARLINK-4258,1 53180U 22083BA  22257.58334491  .00059885  00000-0  42777-3 0  9992,2 53180  53.2155 114.8662 0003431   9.6859 326.1299 15.73210983  1301,6727.864000000001,91.533,352.037,347.421,0.0
53180.0,STARLINK-4258,PAYLOAD,2022-09-14 20:00:01,15.7328982,0.0003498999999999,53.216,113.627,6.7446,305.7878,-0.0010603,-0.00147481,0.0,0 STARLINK-4258,1 53180U 22083BA  22257.83334491 -.00147481  00000-0 -10603-2 0  9994,2 53180  53.2160 113.6270 0003499   6.7446 305.7878 15.73289820  9976,6727.639,91.528,351.858,347.15,0.0
53180.0,STARLINK-4258,PAYLOAD,2022-09-14 22:00:00,15.73281919,0.0003521,53.2161,113.214,6.5311,58.2521,-0.0013482,-0.00186444,0.0,0 STARLINK-4258,1 53180U 22083BA  22257.91667824 -.00186444  00000-0 -13482-2 0  9992,2 53180  53.2161 113.2140 0003521   6.5311  58.2521 15.73281919  1309,6727.6619999999975,91.528,351.895,347.158,0.0
53180.0,STARLINK-4258,PAYLOAD,2022-09-15 06:00:00,15.73273639,0.0003662,53.2151,111.5708,7.3857,146.3375,-0.0006666,-0.00093479,0.0,0 STARLINK-4258,1 53180U 22083BA  22258.25001157 -.00093479  00000-0 -66660-3 0  9993,2 53180  53.2151 111.5708 0003662   7.3857 146.3375 15.73273639 10046,6727.685,91.529,352.014,347.087,0.0
53180.0,STARLINK-4258,PAYLOAD,2022-09-15 14:00:01,15.73232686,0.0003458999999999,53.2155,109.9199,9.6601,233.034,-4.3109e-05,-6.68e-05,0.0,0 STARLINK-4258,1 53180U 22083BA  22258.58334491 -.00006680  00000-0 -43109-4 0  9991,2 53180  53.2155 109.9199 0003459   9.6601 233.0340 15.73232686  1303,6727.802,91.531,351.994,347.34,0.0
53180.0,STARLINK-4258,PAYLOAD,2022-09-15 22:00:00,15.73189877,0.0003756999999999,53.2158,108.2724,8.2475,323.4205,0.00040058,0.00055965,0.0,0 STARLINK-4258,1 53180U 22083BA  22258.91667824  .00055965  00000-0  40058-3 0  9994,2 53180  53.2158 108.2724 0003757   8.2475 323.4205 15.73189877  1304,6727.924,91.534,352.31699999999995,347.261,0.0
53180.0,STARLINK-4258,PAYLOAD,2022-09-16 06:00:00,15.73204598,0.0003369,53.2174,106.6062,7.6079,52.8947,-4.1815e-06,-1.211e-05,0.0,0 STARLINK-4258,1 53180U 22083BA  22259.25001157 -.00001211  00000-0 -41815-5 0  9994,2 53180  53.2174 106.6062 0003369   7.6079  52.8947 15.73204598 10192,6727.882,91.533,352.014,347.48,0.0
53180.0,STARLINK-4258,PAYLOAD,2022-09-16 14:00:01,15.73174726,0.0003528,53.2157,104.9716,6.836,142.7287,4.1319e-05,5.174e-05,0.0,0 STARLINK-4258,1 53180U 22083BA  22259.58334491  .00005174  00000-0  41319-4 0  9998,2 53180  53.2157 104.9716 0003528   6.8360 142.7287 15.73174726  1309,6727.967,91.535,352.206,347.459,0.0
53180.0,STARLINK-4258,PAYLOAD,2022-09-16 22:00:00,15.73131903,0.0003878,53.2156,103.3219,5.7968,232.6809,0.00029832,0.00041343,0.0,0 STARLINK-4258,1 53180U 22083BA  22259.91667824  .00041343  00000-0  29832-3 0  9997,2 53180  53.2156 103.3219 0003878   5.7968 232.6809 15.73131903  1308,6728.089,91.537,352.56300000000016,347.345,0.0
53180.0,STARLINK-4258,PAYLOAD,2022-09-17 06:00:00,15.73157603,0.0003726,53.2153,101.6737,4.2966,322.9911,0.00013626,0.00018514,0.0,0 STARLINK-4258,1 53180U 22083BA  22260.25001157  .00018514  00000-0  13626-3 0  9995,2 53180  53.2153 101.6737 0003726   4.2966 322.9911 15.73157603 10352,6728.016,91.536,352.38800000000015,347.374,0.0
53180.0,STARLINK-4258,PAYLOAD,2022-09-17 14:00:01,15.73203042,0.0003751999999999,53.2175,100.007,6.8603,49.3802,2.0603e-05,2.269e-05,0.0,0 STARLINK-4258,1 53180U 22083BA  22260.58334491  .00002269  00000-0  20603-4 0  9995,2 53180  53.2175 100.0070 0003752   6.8603  49.3802 15.73203042  1307,6727.887,91.533,352.276,347.227,0.0
53180.0,STARLINK-4258,PAYLOAD,2022-09-17 22:00:00,15.73200363,0.0003961,53.2159,98.3762,5.9594,139.1409,0.00051022,0.00071622,0.0,0 STARLINK-4258,1 53180U 22083BA  22260.91667824  .00071622  00000-0  51022-3 0  9998,2 53180  53.2159  98.3762 0003961   5.9594 139.1409 15.73200363  1301,6727.894,91.533,352.4240000000001,347.094,0.0
53180.0,STARLINK-4258,PAYLOAD,2022-09-18 06:00:00,15.73291131,0.0003831,53.2157,96.7252,4.3324,229.7264,-0.0002336999999999,-0.00033435,0.0,0 STARLINK-4258,1 53180U 22083BA  22261.25001157 -.00033435  00000-0 -23370-3 0  9994,2 53180  53.2157  96.7252 0003831   4.3324 229.7264 15.73291131 10516,6727.635,91.528,352.07800000000015,346.923,0.0
53180.0,STARLINK-4258,PAYLOAD,2022-09-18 14:00:01,15.73280847,0.0003734,53.2158,95.0751,3.2577,319.885,-0.00035216,-0.00049947,0.0,0 STARLINK-4258,1 53180U 22083BA  22261.58335648 -.00049947  00000-0 -35216-3 0  9992,2 53180  53.2158  95.0751 0003734   3.2577 319.8850 15.73280847  1304,6727.665,91.528,352.042,347.01800000000014,0.0
53180.0,STARLINK-4258,PAYLOAD,2022-09-18 22:00:00,15.73218657,0.0004038999999999,53.2155,93.4277,3.0624,49.0185,-0.00023969,-0.00034171,0.0,0 STARLINK-4258,1 53180U 22083BA  22261.91667824 -.00034171  00000-0 -23969-3 0  9998,2 53180  53.2155  93.4277 0004039   3.0624  49.0185 15.73218657  1309,6727.842,91.532,352.4240000000001,346.99,0.0
53180.0,STARLINK-4258,PAYLOAD,2022-09-19 06:00:02,15.73216829,0.0003915,53.2153,91.7765,3.4208,137.655,-0.00010991,-0.00016038,0.0,0 STARLINK-4258,1 53180U 22083BA  22262.25002315 -.00016038  00000-0 -10991-3 0  9997,2 53180  53.2153  91.7765 0003915   3.4208 137.6550 15.73216829 10673,6727.847,91.532,352.346,347.07800000000015,0.0
53180.0,STARLINK-4258,PAYLOAD,2022-09-19 14:00:01,15.73200985,0.0003828,53.2156,90.1266,2.2119,227.7495,0.00017731,0.00024342,0.0,0 STARLINK-4258,1 53180U 22083BA  22262.58334491  .00024342  00000-0  17731-3 0  9990,2 53180  53.2156  90.1266 0003828   2.2119 227.7495 15.73200985  1301,6727.892,91.533,352.333,347.182,0.0
53180.0,STARLINK-4258,PAYLOAD,2022-09-19 22:00:00,15.73189227,0.0004157,53.2156,88.4791,0.5657,318.3156,-6.8191e-05,-0.00010184,0.0,0 STARLINK-4258,1 53180U 22083BA  22262.91667824 -.00010184  00000-0 -68191-4 0  9994,2 53180  53.2156  88.4791 0004157   0.5657 318.3156 15.73189227  1304,6727.926,91.534,352.588,346.994,0.0
